DUCHIFAT-3              
1 44854U 19089C   20169.89413482  .00000249  00000-0  26592-4 0  9992
2 44854  36.9660  95.7455 0007488  59.8922 300.2560 14.99069482 28361
ORBITAL FACTORY 2 (OF-2)
1 45113U 19071C   20169.81000951  .00001362  00000-0  53136-4 0  9998
2 45113  51.6453   1.8264 0013573  60.6783 299.5553 15.33357375 21182
